CCSDS_OMM_VERS = 2.0
CREATION_DATE  = 
ORIGINATOR     = 

OBJECT_NAME    = KUIPER-00205
OBJECT_ID      = 2026-030L
CENTER_NAME    = EARTH
REF_FRAME      = TEME
TIME_SYSTEM    = UTC
MEAN_ELEMENT_THEORY = SGP/SGP4

EPOCH          = 2026-03-12T14:44:31.435872
MEAN_MOTION    = 15.36593881
ECCENTRICITY   = .000366
INCLINATION    = 51.8825
RA_OF_ASC_NODE = 204.9262
ARG_OF_PERICENTER = 29.4756
MEAN_ANOMALY   = 330.6436

EPHEMERIS_TYPE = 0
CLASSIFICATION_TYPE = U
NORAD_CAT_ID   = 67774
ELEMENT_SET_NO = 999
REV_AT_EPOCH   = 554
BSTAR          = .13898E-2
MEAN_MOTION_DOT = .50378E-3
MEAN_MOTION_DDOT = 0

CCSDS_OMM_VERS = 2.0
CREATION_DATE  = 
ORIGINATOR     = 

OBJECT_NAME    = KUIPER-00208
OBJECT_ID      = 2026-030M
CENTER_NAME    = EARTH
REF_FRAME      = TEME
TIME_SYSTEM    = UTC
MEAN_ELEMENT_THEORY = SGP/SGP4

EPOCH          = 2026-03-12T14:34:42.374496
MEAN_MOTION    = 15.32189051
ECCENTRICITY   = .0015972
INCLINATION    = 51.8829
RA_OF_ASC_NODE = 205.6214
ARG_OF_PERICENTER = 66.6940
MEAN_ANOMALY   = 293.5723

EPHEMERIS_TYPE = 0
CLASSIFICATION_TYPE = U
NORAD_CAT_ID   = 67775
ELEMENT_SET_NO = 999
REV_AT_EPOCH   = 553
BSTAR          = .4159E-3
MEAN_MOTION_DOT = .12813E-3
MEAN_MOTION_DDOT = 0

CCSDS_OMM_VERS = 2.0
CREATION_DATE  = 
ORIGINATOR     = 

OBJECT_NAME    = KUIPER-00209
OBJECT_ID      = 2026-030N
CENTER_NAME    = EARTH
REF_FRAME      = TEME
TIME_SYSTEM    = UTC
MEAN_ELEMENT_THEORY = SGP/SGP4

EPOCH          = 2026-03-11T21:41:40.885152
MEAN_MOTION    = 15.29846770
ECCENTRICITY   = .0012749
INCLINATION    = 51.8837
RA_OF_ASC_NODE = 209.1524
ARG_OF_PERICENTER = 69.4648
MEAN_ANOMALY   = 290.7702

EPHEMERIS_TYPE = 0
CLASSIFICATION_TYPE = U
NORAD_CAT_ID   = 67776
ELEMENT_SET_NO = 999
REV_AT_EPOCH   = 542
BSTAR          = -.98812E-3
MEAN_MOTION_DOT = -.29302E-3
MEAN_MOTION_DDOT = 0

CCSDS_OMM_VERS = 2.0
CREATION_DATE  = 
ORIGINATOR     = 

OBJECT_NAME    = KUIPER-00213
OBJECT_ID      = 2026-030P
CENTER_NAME    = EARTH
REF_FRAME      = TEME
TIME_SYSTEM    = UTC
MEAN_ELEMENT_THEORY = SGP/SGP4

EPOCH          = 2026-03-12T14:32:57.511680
MEAN_MOTION    = 15.32691641
ECCENTRICITY   = .0015325
INCLINATION    = 51.8794
RA_OF_ASC_NODE = 205.6021
ARG_OF_PERICENTER = 74.1669
MEAN_ANOMALY   = 286.1004

EPHEMERIS_TYPE = 0
CLASSIFICATION_TYPE = U
NORAD_CAT_ID   = 67777
ELEMENT_SET_NO = 999
REV_AT_EPOCH   = 553
BSTAR          = .60687E-3
MEAN_MOTION_DOT = .19185E-3
MEAN_MOTION_DDOT = 0

CCSDS_OMM_VERS = 2.0
CREATION_DATE  = 
ORIGINATOR     = 

OBJECT_NAME    = KUIPER-00214
OBJECT_ID      = 2026-030Q
CENTER_NAME    = EARTH
REF_FRAME      = TEME
TIME_SYSTEM    = UTC
MEAN_ELEMENT_THEORY = SGP/SGP4

EPOCH          = 2026-03-12T14:32:55.960800
MEAN_MOTION    = 15.36936781
ECCENTRICITY   = .0000534
INCLINATION    = 51.8834
RA_OF_ASC_NODE = 204.8829
ARG_OF_PERICENTER = 354.0934
MEAN_ANOMALY   = 6.0046

EPHEMERIS_TYPE = 0
CLASSIFICATION_TYPE = U
NORAD_CAT_ID   = 67778
ELEMENT_SET_NO = 999
REV_AT_EPOCH   = 554
BSTAR          = .57741E-3
MEAN_MOTION_DOT = .20851E-3
MEAN_MOTION_DDOT = 0

CCSDS_OMM_VERS = 2.0
CREATION_DATE  = 
ORIGINATOR     = 

OBJECT_NAME    = KUIPER-00215
OBJECT_ID      = 2026-030R
CENTER_NAME    = EARTH
REF_FRAME      = TEME
TIME_SYSTEM    = UTC
MEAN_ELEMENT_THEORY = SGP/SGP4

EPOCH          = 2026-03-11T17:39:47.569536
MEAN_MOTION    = 15.34588543
ECCENTRICITY   = .00105203
INCLINATION    = 51.8834
RA_OF_ASC_NODE = 209.5383
ARG_OF_PERICENTER = 66.2297
MEAN_ANOMALY   = 293.9791

EPHEMERIS_TYPE = 0
CLASSIFICATION_TYPE = U
NORAD_CAT_ID   = 67779
ELEMENT_SET_NO = 999
REV_AT_EPOCH   = 540
BSTAR          = .9528564E-3
MEAN_MOTION_DOT = .32228E-3
MEAN_MOTION_DDOT = 0

CCSDS_OMM_VERS = 2.0
CREATION_DATE  = 
ORIGINATOR     = 

OBJECT_NAME    = KUIPER-00218
OBJECT_ID      = 2026-030S
CENTER_NAME    = EARTH
REF_FRAME      = TEME
TIME_SYSTEM    = UTC
MEAN_ELEMENT_THEORY = SGP/SGP4

EPOCH          = 2026-03-12T15:13:59.687040
MEAN_MOTION    = 15.35355842
ECCENTRICITY   = .0007103
INCLINATION    = 51.8841
RA_OF_ASC_NODE = 205.0636
ARG_OF_PERICENTER = 58.4826
MEAN_ANOMALY   = 301.6853

EPHEMERIS_TYPE = 0
CLASSIFICATION_TYPE = U
NORAD_CAT_ID   = 67780
ELEMENT_SET_NO = 999
REV_AT_EPOCH   = 554
BSTAR          = .95182E-3
MEAN_MOTION_DOT = .3297E-3
MEAN_MOTION_DDOT = 0

CCSDS_OMM_VERS = 2.0
CREATION_DATE  = 
ORIGINATOR     = 

OBJECT_NAME    = KUIPER-00220
OBJECT_ID      = 2026-030T
CENTER_NAME    = EARTH
REF_FRAME      = TEME
TIME_SYSTEM    = UTC
MEAN_ELEMENT_THEORY = SGP/SGP4

EPOCH          = 2026-03-12T13:51:52.009920
MEAN_MOTION    = 15.34940236
ECCENTRICITY   = .0008536
INCLINATION    = 51.8815
RA_OF_ASC_NODE = 205.4205
ARG_OF_PERICENTER = 64.1453
MEAN_ANOMALY   = 296.0412

EPHEMERIS_TYPE = 0
CLASSIFICATION_TYPE = U
NORAD_CAT_ID   = 67781
ELEMENT_SET_NO = 999
REV_AT_EPOCH   = 553
BSTAR          = .10621E-2
MEAN_MOTION_DOT = .36374E-3
MEAN_MOTION_DDOT = 0

CCSDS_OMM_VERS = 2.0
CREATION_DATE  = 
ORIGINATOR     = 

OBJECT_NAME    = KUIPER-00222
OBJECT_ID      = 2026-030U
CENTER_NAME    = EARTH
REF_FRAME      = TEME
TIME_SYSTEM    = UTC
MEAN_ELEMENT_THEORY = SGP/SGP4

EPOCH          = 2026-03-12T14:40:28.713216
MEAN_MOTION    = 15.32176055
ECCENTRICITY   = .0017438
INCLINATION    = 51.8799
RA_OF_ASC_NODE = 205.6360
ARG_OF_PERICENTER = 75.2849
MEAN_ANOMALY   = 285.0066

EPHEMERIS_TYPE = 0
CLASSIFICATION_TYPE = U
NORAD_CAT_ID   = 67782
ELEMENT_SET_NO = 999
REV_AT_EPOCH   = 553
BSTAR          = .12793E-2
MEAN_MOTION_DOT = .40359E-3
MEAN_MOTION_DDOT = 0

CCSDS_OMM_VERS = 2.0
CREATION_DATE  = 
ORIGINATOR     = 

OBJECT_NAME    = KUIPER-00223
OBJECT_ID      = 2026-030V
CENTER_NAME    = EARTH
REF_FRAME      = TEME
TIME_SYSTEM    = UTC
MEAN_ELEMENT_THEORY = SGP/SGP4

EPOCH          = 2026-03-12T14:05:59.943840
MEAN_MOTION    = 15.34253465
ECCENTRICITY   = .0012395
INCLINATION    = 51.8826
RA_OF_ASC_NODE = 205.4858
ARG_OF_PERICENTER = 72.7412
MEAN_ANOMALY   = 287.4929

EPHEMERIS_TYPE = 0
CLASSIFICATION_TYPE = U
NORAD_CAT_ID   = 67783
ELEMENT_SET_NO = 999
REV_AT_EPOCH   = 553
BSTAR          = .93532E-3
MEAN_MOTION_DOT = .31307E-3
MEAN_MOTION_DDOT = 0

CCSDS_OMM_VERS = 2.0
CREATION_DATE  = 
ORIGINATOR     = 

OBJECT_NAME    = KUIPER-00225
OBJECT_ID      = 2026-030W
CENTER_NAME    = EARTH
REF_FRAME      = TEME
TIME_SYSTEM    = UTC
MEAN_ELEMENT_THEORY = SGP/SGP4

EPOCH          = 2026-03-12T14:56:02.812128
MEAN_MOTION    = 15.35428919
ECCENTRICITY   = .0006506
INCLINATION    = 51.8811
RA_OF_ASC_NODE = 204.9774
ARG_OF_PERICENTER = 165.8870
MEAN_ANOMALY   = 194.2299

EPHEMERIS_TYPE = 0
CLASSIFICATION_TYPE = U
NORAD_CAT_ID   = 67784
ELEMENT_SET_NO = 999
REV_AT_EPOCH   = 554
BSTAR          = .59897E-2
MEAN_MOTION_DOT = .215103E-2
MEAN_MOTION_DDOT = 0

CCSDS_OMM_VERS = 2.0
CREATION_DATE  = 
ORIGINATOR     = 

OBJECT_NAME    = KUIPER-00226
OBJECT_ID      = 2026-030X
CENTER_NAME    = EARTH
REF_FRAME      = TEME
TIME_SYSTEM    = UTC
MEAN_ELEMENT_THEORY = SGP/SGP4

EPOCH          = 2026-03-12T15:06:51.364224
MEAN_MOTION    = 15.30627643
ECCENTRICITY   = .0019581
INCLINATION    = 51.8818
RA_OF_ASC_NODE = 205.7538
ARG_OF_PERICENTER = 80.7796
MEAN_ANOMALY   = 279.5402

EPHEMERIS_TYPE = 0
CLASSIFICATION_TYPE = U
NORAD_CAT_ID   = 67785
ELEMENT_SET_NO = 999
REV_AT_EPOCH   = 553
BSTAR          = .63743E-3
MEAN_MOTION_DOT = .18935E-3
MEAN_MOTION_DDOT = 0

CCSDS_OMM_VERS = 2.0
CREATION_DATE  = 
ORIGINATOR     = 

OBJECT_NAME    = KUIPER-00259
OBJECT_ID      = 2026-030Y
CENTER_NAME    = EARTH
REF_FRAME      = TEME
TIME_SYSTEM    = UTC
MEAN_ELEMENT_THEORY = SGP/SGP4

EPOCH          = 2026-03-12T15:17:39.350400
MEAN_MOTION    = 15.35220589
ECCENTRICITY   = .0008654
INCLINATION    = 51.8801
RA_OF_ASC_NODE = 205.0718
ARG_OF_PERICENTER = 58.9645
MEAN_ANOMALY   = 301.2190

EPHEMERIS_TYPE = 0
CLASSIFICATION_TYPE = U
NORAD_CAT_ID   = 67786
ELEMENT_SET_NO = 999
REV_AT_EPOCH   = 554
BSTAR          = .54995E-3
MEAN_MOTION_DOT = .18775E-3
MEAN_MOTION_DDOT = 0

CCSDS_OMM_VERS = 2.0
CREATION_DATE  = 
ORIGINATOR     = 

OBJECT_NAME    = KUIPER-00260
OBJECT_ID      = 2026-030Z
CENTER_NAME    = EARTH
REF_FRAME      = TEME
TIME_SYSTEM    = UTC
MEAN_ELEMENT_THEORY = SGP/SGP4

EPOCH          = 2026-03-12T14:41:12.005664
MEAN_MOTION    = 15.36672117
ECCENTRICITY   = .0001611
INCLINATION    = 51.8805
RA_OF_ASC_NODE = 204.9077
ARG_OF_PERICENTER = 48.1066
MEAN_ANOMALY   = 312.0058

EPHEMERIS_TYPE = 0
CLASSIFICATION_TYPE = U
NORAD_CAT_ID   = 67787
ELEMENT_SET_NO = 999
REV_AT_EPOCH   = 545
BSTAR          = .94928E-3
MEAN_MOTION_DOT = .34296E-3
MEAN_MOTION_DDOT = 0

CCSDS_OMM_VERS = 2.0
CREATION_DATE  = 
ORIGINATOR     = 

OBJECT_NAME    = KUIPER-00262
OBJECT_ID      = 2026-030AA
CENTER_NAME    = EARTH
REF_FRAME      = TEME
TIME_SYSTEM    = UTC
MEAN_ELEMENT_THEORY = SGP/SGP4

EPOCH          = 2026-03-12T14:34:43.357728
MEAN_MOTION    = 15.36870534
ECCENTRICITY   = .0000623
INCLINATION    = 51.8811
RA_OF_ASC_NODE = 204.8819
ARG_OF_PERICENTER = 28.9356
MEAN_ANOMALY   = 331.1665

EPHEMERIS_TYPE = 0
CLASSIFICATION_TYPE = U
NORAD_CAT_ID   = 67788
ELEMENT_SET_NO = 999
REV_AT_EPOCH   = 554
BSTAR          = .10214E-2
MEAN_MOTION_DOT = .37184E-3
MEAN_MOTION_DDOT = 0

